{
  "type": "FeatureCollection",
  "features": [
    {
      "type": "Feature",
      "properties": {
        "norad_id": 37836,
        "name": "EUTELSAT 16A",
        "group": "eutelsat",
        "lat": -0.05566068053553389,
        "lon": -155.7653395167572,
        "alt_km": 35770.87757190312,
        "timestamp": "2025-12-04T07:39:35.841500+00:00",
        "meta_object_name": "EUTELSAT 16A",
        "meta_object_id": "2011-057A",
        "meta_epoch": "2025-12-03T19:13:38.940960",
        "meta_mean_motion": 1.00273731,
        "meta_eccentricity": 0.0006026,
        "meta_inclination": 0.059,
        "meta_ra_of_asc_node": 348.3337,
        "meta_arg_of_pericenter": 271.1066,
        "meta_mean_anomaly": 117.872,
        "meta_ephemeris_type": 0,
        "meta_classification_type": "U",
        "meta_norad_cat_id": 37836,
        "meta_element_set_no": 999,
        "meta_rev_at_epoch": 536,
        "meta_bstar": 0,
        "meta_mean_motion_dot": 1.22e-06,
        "meta_mean_motion_ddot": 0,
        "tle_line1": "1 37836U 11057A   25337.80114515  .00000122  00000+0  00000+0 0  9999",
        "tle_line2": "2 37836   0.0590 348.3337 0006026 271.1066 117.8720  1.00273731  5365"
      },
      "geometry": {
        "type": "Point",
        "coordinates": [
          -155.7653395167572,
          -0.05566068053553389
        ]
      }
    },
    {
      "type": "Feature",
      "properties": {
        "norad_id": 38992,
        "name": "EUTELSAT 21B",
        "group": "eutelsat",
        "lat": -0.06869223642828212,
        "lon": -150.141200137109,
        "alt_km": 35777.44034803704,
        "timestamp": "2025-12-04T07:39:35.841511+00:00",
        "meta_object_name": "EUTELSAT 21B",
        "meta_object_id": "2012-062B",
        "meta_epoch": "2025-12-03T20:35:38.719392",
        "meta_mean_motion": 1.00273956,
        "meta_eccentricity": 0.00033734,
        "meta_inclination": 0.0676,
        "meta_ra_of_asc_node": 346.8433,
        "meta_arg_of_pericenter": 279.1801,
        "meta_mean_anomaly": 137.4436,
        "meta_ephemeris_type": 0,
        "meta_classification_type": "U",
        "meta_norad_cat_id": 38992,
        "meta_element_set_no": 999,
        "meta_rev_at_epoch": 4786,
        "meta_bstar": 0,
        "meta_mean_motion_dot": 1.47e-06,
        "meta_mean_motion_ddot": 0,
        "tle_line1": "1 38992U 12062B   25337.85808703  .00000147  00000+0  00000+0 0  9991",
        "tle_line2": "2 38992   0.0676 346.8433 0003373 279.1801 137.4436  1.00273956 47863"
      },
      "geometry": {
        "type": "Point",
        "coordinates": [
          -150.141200137109,
          -0.06869223642828212
        ]
      }
    },
    {
      "type": "Feature",
      "properties": {
        "norad_id": 39020,
        "name": "EUTELSAT 70B",
        "group": "eutelsat",
        "lat": -0.08283979401134234,
        "lon": -101.21577318116522,
        "alt_km": 35768.5044371973,
        "timestamp": "2025-12-04T07:39:35.841536+00:00",
        "meta_object_name": "EUTELSAT 70B",
        "meta_object_id": "2012-069A",
        "meta_epoch": "2025-12-03T18:55:38.052768",
        "meta_mean_motion": 1.00271658,
        "meta_eccentricity": 0.00043345,
        "meta_inclination": 0.0629,
        "meta_ra_of_asc_node": 2.7299,
        "meta_arg_of_pericenter": 239.4424,
        "meta_mean_anomaly": 185.1062,
        "meta_ephemeris_type": 0,
        "meta_classification_type": "U",
        "meta_norad_cat_id": 39020,
        "meta_element_set_no": 999,
        "meta_rev_at_epoch": 4755,
        "meta_bstar": 0,
        "meta_mean_motion_dot": -2.6e-07,
        "meta_mean_motion_ddot": 0,
        "tle_line1": "1 39020U 12069A   25337.78863487 -.00000026  00000+0  00000+0 0  9990",
        "tle_line2": "2 39020   0.0629   2.7299 0004334 239.4424 185.1062  1.00271658 47558"
      },
      "geometry": {
        "type": "Point",
        "coordinates": [
          -101.21577318116522,
          -0.08283979401134234
        ]
      }
    },
    {
      "type": "Feature",
      "properties": {
        "norad_id": 39122,
        "name": "EUTELSAT 117 WEST A",
        "group": "eutelsat",
        "lat": 0.0411075031135471,
        "lon": 71.49385424088281,
        "alt_km": 35798.606216013664,
        "timestamp": "2025-12-04T07:39:35.841548+00:00",
        "meta_object_name": "EUTELSAT 117 WEST A",
        "meta_object_id": "2013-012A",
        "meta_epoch": "2025-12-03T13:12:01.410912",
        "meta_mean_motion": 1.00274082,
        "meta_eccentricity": 0.000313,
        "meta_inclination": 0.0219,
        "meta_ra_of_asc_node": 309.0576,
        "meta_arg_of_pericenter": 308.0707,
        "meta_mean_anomaly": 256.726,
        "meta_ephemeris_type": 0,
        "meta_classification_type": "U",
        "meta_norad_cat_id": 39122,
        "meta_element_set_no": 999,
        "meta_rev_at_epoch": 4647,
        "meta_bstar": 0,
        "meta_mean_motion_dot": 5e-08,
        "meta_mean_motion_ddot": 0,
        "tle_line1": "1 39122U 13012A   25337.55001633  .00000005  00000+0  00000+0 0  9990",
        "tle_line2": "2 39122   0.0219 309.0576 0003130 308.0707 256.7260  1.00274082 46476"
      },
      "geometry": {
        "type": "Point",
        "coordinates": [
          71.49385424088281,
          0.0411075031135471
        ]
      }
    },
    {
      "type": "Feature",
      "properties": {
        "norad_id": 39163,
        "name": "EUTELSAT 7B",
        "group": "eutelsat",
        "lat": -0.03508332682642547,
        "lon": -164.77722749492867,
        "alt_km": 35794.31468916134,
        "timestamp": "2025-12-04T07:39:35.841559+00:00",
        "meta_object_name": "EUTELSAT 7B",
        "meta_object_id": "2013-022A",
        "meta_epoch": "2025-12-03T17:12:48.873312",
        "meta_mean_motion": 1.00269536,
        "meta_eccentricity": 0.00042199,
        "meta_inclination": 0.0678,
        "meta_ra_of_asc_node": 0.663,
        "meta_arg_of_pericenter": 310.3325,
        "meta_mean_anomaly": 27.0084,
        "meta_ephemeris_type": 0,
        "meta_classification_type": "U",
        "meta_norad_cat_id": 39163,
        "meta_element_set_no": 999,
        "meta_rev_at_epoch": 4599,
        "meta_bstar": 0,
        "meta_mean_motion_dot": 6.5e-07,
        "meta_mean_motion_ddot": 0,
        "tle_line1": "1 39163U 13022A   25337.71723233  .00000065  00000+0  00000+0 0  9997",
        "tle_line2": "2 39163   0.0678   0.6630 0004219 310.3325  27.0084  1.00269536 45993"
      },
      "geometry": {
        "type": "Point",
        "coordinates": [
          -164.77722749492867,
          -0.03508332682642547
        ]
      }
    },
    {
      "type": "Feature",
      "properties": {
        "norad_id": 39612,
        "name": "EXPRESS-AT1",
        "group": "eutelsat",
        "lat": -0.037598463169263366,
        "lon": -115.72488937579838,
        "alt_km": 35786.39853209856,
        "timestamp": "2025-12-04T07:39:35.841570+00:00",
        "meta_object_name": "EXPRESS-AT1",
        "meta_object_id": "2014-010A",
        "meta_epoch": "2025-12-03T21:56:38.683968",
        "meta_mean_motion": 1.00270078,
        "meta_eccentricity": 2.569e-05,
        "meta_inclination": 0.017,
        "meta_ra_of_asc_node": 302.0572,
        "meta_arg_of_pericenter": 219.2348,
        "meta_mean_anomaly": 296.8676,
        "meta_ephemeris_type": 0,
        "meta_classification_type": "U",
        "meta_norad_cat_id": 39612,
        "meta_element_set_no": 999,
        "meta_rev_at_epoch": 4286,
        "meta_bstar": 0,
        "meta_mean_motion_dot": 9.6e-07,
        "meta_mean_motion_ddot": 0,
        "tle_line1": "1 39612U 14010A   25337.91433662  .00000096  00000+0  00000+0 0  9994",
        "tle_line2": "2 39612   0.0170 302.0572 0000256 219.2348 296.8676  1.00270078 42861"
      },
      "geometry": {
        "type": "Point",
        "coordinates": [
          -115.72488937579838,
          -0.037598463169263366
        ]
      }
    },
    {
      "type": "Feature",
      "properties": {
        "norad_id": 39613,
        "name": "EXPRESS-AT2",
        "group": "eutelsat",
        "lat": -0.0007307133833775474,
        "lon": -31.87516640054016,
        "alt_km": 35781.396649975126,
        "timestamp": "2025-12-04T07:39:35.841581+00:00",
        "meta_object_name": "EXPRESS-AT2",
        "meta_object_id": "2014-010B",
        "meta_epoch": "2025-12-03T21:34:38.771040",
        "meta_mean_motion": 1.00270417,
        "meta_eccentricity": 0.00014975,
        "meta_inclination": 0.0219,
        "meta_ra_of_asc_node": 333.2417,
        "meta_arg_of_pericenter": 319.3062,
        "meta_mean_anomaly": 243.9394,
        "meta_ephemeris_type": 0,
        "meta_classification_type": "U",
        "meta_norad_cat_id": 39613,
        "meta_element_set_no": 999,
        "meta_rev_at_epoch": 4254,
        "meta_bstar": 0,
        "meta_mean_motion_dot": 0,
        "meta_mean_motion_ddot": 0,
        "tle_line1": "1 39613U 14010B   25337.89905985  .00000000  00000+0  00000+0 0  9999",
        "tle_line2": "2 39613   0.0219 333.2417 0001497 319.3062 243.9394  1.00270417 42545"
      },
      "geometry": {
        "type": "Point",
        "coordinates": [
          -31.87516640054016,
          -0.0007307133833775474
        ]
      }
    }
  ]
}